{"type": "FeatureCollection", "features": [{"type": "Feature", "geometry": {"type": "LineString", "coordinates": [[12.564894, 55.672755], [12.564894, 55.672755], [12.565274, 55.672384], [12.565622, 55.672014], [12.56592, 55.671619], [12.566186, 55.671225], [12.566311, 55.671023], [12.566441, 55.670705], [12.566524, 55.670388], [12.566543, 55.670072], [12.566529, 55.669749], [12.566452, 55.669428], [12.566328, 55.669108], [12.566157, 55.668807], [12.565939, 55.668507], [12.56569, 55.668218], [12.565379, 55.667948], [12.565021, 55.667689], [12.564634, 55.667457], [12.562396, 55.666291], [12.559909, 55.665005], [12.559164, 55.664685], [12.558608, 55.664512], [12.558218, 55.664425], [12.557815, 55.664365], [12.5477, 55.663165], [12.547051, 55.663022], [12.546065, 55.662844], [12.545389, 55.662764], [12.544539, 55.662681], [12.544377, 55.66265], [12.54359, 55.662394], [12.542944, 55.662116], [12.542343, 55.661791], [12.541817, 55.661429], [12.541383, 55.661028], [12.541042, 55.660597], [12.53992, 55.65875], [12.53929, 55.657411], [12.538906, 55.656145], [12.538576, 55.65566], [12.538153, 55.655205], [12.537653, 55.654778], [12.537482, 55.654648], [12.536557, 55.654082], [12.535749, 55.653763], [12.529576, 55.651972], [12.528437, 55.65169], [12.527341, 55.651524], [12.523831, 55.65122], [12.523178, 55.651212], [12.522512, 55.651231], [12.521865, 55.651286], [12.52122, 55.651358], [12.52028, 55.65152], [12.517843, 55.652183], [12.517389, 55.652268], [12.516918, 55.652327], [12.516443, 55.652359], [12.515967, 55.652363], [12.515503, 55.652331], [12.515503, 55.652331], [12.515503, 55.652331], [12.515503, 55.652331], [12.512294, 55.65415], [12.509981, 55.655313], [12.508207, 55.656101], [12.506228, 55.656913], [12.501782, 55.658767], [12.49375, 55.661801], [12.491121, 55.662829], [12.488528, 55.663721], [12.485647, 55.664226], [12.483454, 55.664252], [12.470809, 55.664449], [12.459058, 55.664673], [12.45437, 55.664724], [12.444821, 55.664858], [12.440677, 55.664947], [12.438323, 55.664951], [12.428235, 55.665098], [12.423801, 55.665141], [12.420455, 55.665082], [12.417258, 55.664901], [12.413572, 55.664581], [12.407614, 55.663929], [12.401645, 55.663339], [12.397902, 55.662913], [12.397902, 55.662913], [12.397902, 55.662913], [12.397902, 55.662913], [12.394431, 55.662505], [12.382722, 55.661183], [12.356998, 55.658339], [12.353164, 55.657958], [12.348456, 55.657395], [12.318404, 55.654076], [12.310185, 55.653165], [12.306946, 55.652839], [12.302941, 55.652488], [12.297069, 55.651873], [12.293057, 55.651433], [12.289007, 55.650921], [12.269331, 55.648741], [12.269331, 55.648741], [12.269331, 55.648741], [12.269331, 55.648741], [12.253139, 55.646933], [12.249672, 55.64654], [12.246622, 55.64618], [12.236913, 55.645088], [12.234252, 55.644817], [12.231772, 55.64463], [12.229108, 55.644521], [12.226056, 55.644529], [12.22262, 55.644691], [12.219875, 55.644943], [12.217657, 55.645235], [12.214316, 55.645782], [12.205881, 55.647225], [12.202055, 55.647883], [12.198798, 55.648498], [12.197182, 55.648765], [12.197182, 55.648765], [12.197182, 55.648765], [12.197182, 55.648765], [12.193747, 55.649331], [12.190414, 55.649795], [12.1877, 55.650055], [12.184424, 55.650239], [12.180769, 55.650262], [12.178026, 55.650162], [12.132279, 55.647914], [12.132279, 55.647914], [12.132279, 55.647914], [12.132279, 55.647914], [12.11978, 55.647289], [12.116789, 55.64705], [12.11409, 55.646705], [12.110786, 55.646133], [12.107629, 55.645422], [12.104213, 55.644438], [12.099522, 55.642813], [12.097118, 55.641957], [12.09522, 55.641267], [12.092565, 55.640256], [12.090109, 55.639347], [12.088784, 55.638867], [12.088784, 55.638867], [12.088784, 55.638867], [12.088784, 55.638867], [12.086511, 55.638062], [12.081839, 55.636462], [12.081332, 55.636268], [12.080361, 55.635843], [12.078942, 55.635186], [12.077599, 55.634474], [12.076332, 55.633724], [12.071609, 55.630632], [12.069608, 55.629235], [12.066463, 55.627219], [12.060685, 55.623426], [12.058286, 55.621993], [12.055426, 55.619952], [12.05345, 55.618446], [12.052086, 55.617239], [12.050981, 55.616107], [12.049895, 55.614813], [12.048475, 55.612681], [12.04757, 55.610843], [12.047035, 55.609472], [12.046441, 55.608165], [12.045242, 55.604581], [12.036705, 55.581463], [12.036098, 55.579554], [12.035647, 55.577417], [12.035515, 55.575919], [12.035477, 55.571515], [12.035466, 55.565204], [12.035279, 55.563401], [12.034889, 55.56164], [12.034196, 55.55985], [12.033121, 55.557845], [12.031863, 55.556123], [12.030284, 55.554373], [12.028189, 55.552492], [12.025129, 55.55023], [12.024279, 55.549703], [12.024279, 55.549703], [12.024279, 55.549703], [12.024279, 55.549703], [12.017918, 55.545742], [12.006153, 55.538273], [12.00099, 55.53502], [11.998772, 55.533582], [11.984883, 55.524751], [11.982892, 55.523362], [11.981117, 55.521894], [11.97968, 55.520491], [11.978219, 55.518783], [11.976895, 55.516774], [11.975878, 55.514632], [11.975191, 55.512258], [11.973261, 55.500743], [11.972523, 55.496617], [11.972042, 55.494651], [11.972042, 55.494651], [11.972042, 55.494651], [11.972042, 55.494651], [11.97158, 55.49272], [11.971017, 55.490927], [11.970321, 55.489254], [11.969285, 55.487481], [11.967864, 55.485843], [11.965922, 55.48402], [11.96375, 55.482302], [11.961336, 55.480715], [11.958695, 55.479269], [11.956749, 55.478228], [11.920929, 55.459212], [11.91869, 55.458025], [11.916981, 55.457166], [11.914281, 55.455945], [11.911102, 55.454672], [11.908553, 55.45378], [11.905638, 55.45287], [11.902717, 55.452076], [11.899611, 55.451349], [11.896449, 55.450732], [11.89307, 55.450165], [11.829783, 55.440849], [11.824957, 55.440152], [11.82172, 55.439777], [11.819051, 55.439596], [11.798266, 55.438608], [11.795207, 55.438498], [11.791778, 55.438307], [11.789228, 55.438248], [11.786405, 55.438132], [11.786405, 55.438132], [11.786405, 55.438132], [11.786405, 55.438132], [11.782992, 55.43794], [11.779543, 55.437686], [11.776096, 55.437468], [11.77514, 55.437364], [11.77375, 55.437153], [11.772372, 55.436887], [11.771037, 55.436567], [11.769745, 55.436183], [11.767178, 55.435198], [11.765489, 55.434337], [11.763797, 55.433198], [11.762295, 55.431839], [11.760967, 55.430026], [11.755385, 55.420029], [11.754276, 55.418409], [11.74882, 55.41152], [11.746473, 55.40822], [11.745344, 55.406519], [11.74443, 55.404967], [11.740676, 55.398426], [11.739512, 55.396213], [11.738411, 55.394458], [11.737251, 55.392983], [11.736059, 55.391742], [11.734277, 55.390173], [11.732345, 55.388724], [11.729987, 55.387275], [11.727355, 55.385743], [11.725043, 55.384284], [11.719966, 55.380712], [11.699544, 55.366233], [11.697249, 55.364522], [11.695623, 55.362886], [11.694615, 55.36129], [11.694064, 55.35945], [11.694137, 55.357049], [11.694858, 55.354884], [11.69559, 55.353583], [11.69559, 55.353583], [11.69559, 55.353583], [11.69559, 55.353583], [11.695731, 55.353337], [11.698341, 55.349719], [11.699513, 55.347931], [11.700431, 55.346599], [11.701473, 55.345443], [11.703193, 55.344065], [11.70553, 55.34271], [11.708465, 55.341351], [11.728575, 55.332165], [11.730531, 55.33125], [11.732343, 55.330319], [11.73448, 55.329067], [11.736152, 55.327932], [11.737678, 55.326739], [11.73959, 55.324961], [11.741471, 55.322752], [11.742542, 55.321137], [11.743209, 55.319836], [11.743797, 55.318538], [11.744344, 55.316871], [11.744575, 55.315194], [11.744516, 55.313209], [11.743006, 55.282444], [11.74305, 55.280798], [11.743545, 55.278378], [11.744413, 55.276363], [11.745524, 55.274432], [11.750552, 55.265841], [11.752175, 55.26291], [11.752756, 55.261072], [11.753099, 55.258979], [11.753469, 55.257271], [11.75423, 55.255528], [11.757344, 55.250729], [11.758619, 55.248678], [11.759312, 55.246882], [11.760796, 55.241724], [11.761235, 55.240339], [11.761683, 55.238639], [11.762349, 55.237131], [11.76334, 55.235536], [11.764546, 55.234106], [11.766942, 55.231678], [11.767327, 55.231328], [11.767327, 55.231328], [11.767327, 55.231328], [11.767327, 55.231328], [11.768625, 55.230094], [11.770244, 55.228502], [11.772119, 55.226967], [11.774912, 55.22551], [11.778271, 55.224283], [11.780972, 55.223331], [11.783638, 55.222326], [11.786749, 55.2207], [11.788556, 55.219337], [11.789671, 55.218197], [11.79053, 55.216991], [11.791255, 55.215437], [11.791643, 55.213576], [11.791923, 55.211727], [11.792364, 55.210395], [11.792999, 55.20914], [11.79406, 55.207677], [11.795571, 55.206132], [11.79763, 55.204557], [11.799743, 55.203313], [11.801507, 55.202472], [11.829726, 55.190124], [11.832192, 55.188997], [11.834673, 55.187645], [11.836501, 55.186407], [11.838427, 55.184762], [11.84033, 55.182578], [11.84479, 55.175731], [11.851999, 55.164496], [11.85314, 55.162662], [11.854387, 55.160772], [11.855629, 55.158828], [11.856341, 55.157364], [11.856784, 55.156086], [11.857183, 55.154423], [11.857375, 55.152728], [11.857372, 55.151362], [11.857179, 55.149766], [11.853939, 55.135826], [11.853179, 55.131996], [11.853317, 55.12997], [11.85401, 55.128246], [11.855087, 55.126638], [11.861398, 55.11946], [11.862627, 55.118002], [11.866732, 55.113338], [11.869135, 55.110549], [11.869135, 55.110549], [11.869135, 55.110549], [11.869135, 55.110549], [11.870894, 55.10861], [11.872146, 55.107043], [11.873338, 55.105307], [11.874349, 55.10344], [11.874925, 55.102069], [11.875357, 55.100674], [11.875739, 55.099002], [11.87592, 55.097586], [11.875939, 55.095455], [11.875792, 55.093634], [11.873595, 55.071318], [11.873056, 55.066197], [11.872388, 55.058634], [11.872401, 55.056845], [11.872615, 55.055024], [11.87306, 55.053144], [11.873737, 55.05124], [11.874404, 55.049839], [11.875337, 55.048217], [11.876516, 55.046526], [11.877914, 55.044848], [11.879356, 55.043348], [11.880797, 55.042037], [11.896432, 55.028091], [11.900237, 55.024656], [11.901762, 55.022812], [11.90267, 55.020435], [11.902692, 55.018573], [11.902113, 55.016834], [11.900457, 55.013844], [11.899716, 55.012675], [11.899716, 55.012675], [11.899716, 55.012675], [11.899716, 55.012675], [11.89908, 55.011665], [11.897943, 55.009795], [11.897272, 55.008301], [11.896819, 55.007008], [11.896333, 55.005689], [11.895519, 55.003946], [11.893918, 55.001036], [11.892463, 54.99929], [11.888012, 54.995252], [11.886169, 54.993542], [11.885167, 54.992208], [11.884753, 54.990582], [11.885136, 54.988739], [11.886453, 54.987044], [11.888857, 54.985468], [11.891813, 54.983968], [11.893676, 54.982917], [11.89575, 54.98089], [11.896438, 54.97894], [11.89614, 54.977194], [11.89501, 54.975612], [11.8929, 54.973657], [11.891212, 54.972124], [11.887222, 54.968578], [11.869703, 54.953008], [11.867359, 54.950807], [11.865908, 54.948639], [11.865461, 54.946968], [11.865662, 54.945183], [11.866716, 54.942434], [11.868118, 54.939102], [11.868118, 54.939102], [11.868118, 54.939102], [11.868118, 54.939102], [11.869461, 54.93604], [11.873795, 54.92719], [11.874562, 54.925904], [11.875472, 54.924651], [11.876688, 54.923319], [11.879548, 54.920536], [11.882592, 54.917479], [11.884213, 54.915274], [11.885211, 54.913074], [11.885659, 54.911265], [11.885774, 54.909393], [11.885771, 54.9063], [11.885816, 54.903], [11.885804, 54.900213], [11.885786, 54.898002], [11.885715, 54.896583], [11.885715, 54.896583], [11.885715, 54.896583], [11.885715, 54.896583], [11.885759, 54.893696], [11.885737, 54.89144], [11.885664, 54.889104], [11.885522, 54.863781], [11.885436, 54.858434], [11.885325, 54.856225], [11.885242, 54.855939], [11.885242, 54.855939], [11.885242, 54.855939], [11.885242, 54.855939], [11.884611, 54.853437], [11.883172, 54.850522], [11.882672, 54.849194], [11.882396, 54.847718], [11.882379, 54.845956], [11.88431, 54.829349], [11.884514, 54.827627], [11.884684, 54.825645], [11.885387, 54.819353], [11.885922, 54.815061], [11.886204, 54.81313], [11.886585, 54.81171], [11.887971, 54.808215], [11.888455, 54.80628], [11.888541, 54.804003], [11.888146, 54.801073], [11.884709, 54.777959], [11.884412, 54.776195], [11.883851, 54.774437], [11.882852, 54.772627], [11.881056, 54.770332], [11.879356, 54.768511], [11.877721, 54.76695], [11.877721, 54.76695]]}, "properties": {"shape_id": "2413"}}]}