{"type": "FeatureCollection", "features": [{"type": "Feature", "geometry": {"type": "LineString", "coordinates": [[12.587571, 55.692766], [12.587571, 55.692766], [12.587131, 55.692482], [12.583845, 55.690501], [12.581921, 55.689478], [12.580036, 55.688535], [12.57656, 55.686559], [12.574645, 55.685275], [12.572231, 55.683772], [12.571245, 55.683073], [12.571245, 55.683073], [12.571245, 55.683073], [12.571245, 55.683073], [12.570342, 55.682425], [12.566925, 55.679862], [12.563926, 55.678205], [12.563616, 55.677945], [12.563321, 55.677674], [12.563088, 55.677393], [12.562887, 55.677102], [12.562686, 55.67665], [12.562595, 55.676347], [12.562567, 55.676033], [12.562566, 55.675673], [12.562582, 55.675502], [12.562662, 55.675158], [12.562775, 55.674822], [12.562952, 55.674493], [12.563177, 55.674172], [12.56358, 55.673701], [12.564082, 55.673273], [12.564471, 55.673001], [12.564894, 55.672755], [12.564894, 55.672755], [12.564894, 55.672755], [12.564894, 55.672755], [12.565274, 55.672384], [12.565622, 55.672014], [12.56592, 55.671619], [12.566186, 55.671225], [12.566311, 55.671023], [12.566441, 55.670705], [12.566524, 55.670388], [12.566543, 55.670072], [12.566529, 55.669749], [12.566452, 55.669428], [12.566328, 55.669108], [12.566157, 55.668807], [12.565939, 55.668507], [12.56569, 55.668218], [12.565379, 55.667948], [12.565021, 55.667689], [12.564634, 55.667457], [12.562396, 55.666291], [12.559909, 55.665005], [12.559164, 55.664685], [12.558608, 55.664512], [12.558218, 55.664425], [12.557815, 55.664365], [12.5477, 55.663165], [12.547051, 55.663022], [12.546065, 55.662844], [12.545389, 55.662764], [12.544539, 55.662681], [12.544377, 55.66265], [12.54359, 55.662394], [12.542944, 55.662116], [12.542343, 55.661791], [12.541817, 55.661429], [12.541383, 55.661028], [12.541042, 55.660597], [12.53992, 55.65875], [12.53929, 55.657411], [12.538906, 55.656145], [12.538576, 55.65566], [12.538153, 55.655205], [12.537653, 55.654778], [12.537482, 55.654648], [12.536557, 55.654082], [12.535749, 55.653763], [12.529576, 55.651972], [12.528437, 55.65169], [12.527341, 55.651524], [12.523831, 55.65122], [12.523178, 55.651212], [12.522512, 55.651231], [12.521865, 55.651286], [12.52122, 55.651358], [12.52028, 55.65152], [12.517843, 55.652183], [12.517389, 55.652268], [12.516918, 55.652327], [12.516443, 55.652359], [12.515967, 55.652363], [12.515503, 55.652331], [12.515503, 55.652331], [12.515503, 55.652331], [12.515503, 55.652331], [12.513475, 55.653487], [12.511108, 55.65475], [12.508895, 55.655794], [12.506228, 55.656913], [12.503278, 55.657897], [12.501247, 55.658305], [12.499413, 55.65843], [12.49731, 55.658391], [12.496006, 55.658212], [12.494763, 55.658005], [12.493047, 55.657307], [12.487392, 55.654348], [12.486367, 55.65391], [12.484976, 55.653464], [12.483592, 55.653108], [12.481989, 55.652785], [12.479018, 55.652455], [12.474265, 55.651943], [12.469996, 55.651317], [12.458626, 55.649328], [12.454925, 55.648659], [12.449923, 55.648009], [12.444292, 55.647259], [12.440375, 55.64647], [12.436254, 55.644985], [12.434657, 55.644175], [12.430238, 55.642006], [12.42657, 55.640787], [12.424012, 55.640068], [12.420385, 55.639494], [12.418013, 55.639273], [12.415539, 55.639162], [12.413441, 55.639158], [12.404112, 55.639741], [12.401242, 55.64], [12.390735, 55.641298], [12.382046, 55.641925], [12.373892, 55.641952], [12.36325, 55.641687], [12.356682, 55.641282], [12.351123, 55.64041], [12.345088, 55.638983], [12.340635, 55.637468], [12.337315, 55.635994], [12.334149, 55.634471], [12.331084, 55.63263], [12.329648, 55.631626], [12.3275, 55.630093], [12.325071, 55.628253], [12.323377, 55.626645], [12.320607, 55.623771], [12.316405, 55.619542], [12.313519, 55.617165], [12.312119, 55.616196], [12.30937, 55.614499], [12.301476, 55.61054], [12.291806, 55.605658], [12.287077, 55.60324], [12.285384, 55.60218], [12.283152, 55.600747], [12.281743, 55.599652], [12.276417, 55.595398], [12.272843, 55.592518], [12.269339, 55.589905], [12.263079, 55.586017], [12.259592, 55.583602], [12.25406, 55.57928], [12.248332, 55.575458], [12.244842, 55.573357], [12.237689, 55.568593], [12.233907, 55.565815], [12.231142, 55.563641], [12.229512, 55.561957], [12.226584, 55.557971], [12.223323, 55.553409], [12.220645, 55.550926], [12.216937, 55.547849], [12.213771, 55.545397], [12.211374, 55.543815], [12.209208, 55.542532], [12.205124, 55.540472], [12.201827, 55.538733], [12.19889, 55.536733], [12.19674, 55.535045], [12.193331, 55.531727], [12.189842, 55.52681], [12.184833, 55.519937], [12.178043, 55.510224], [12.17671, 55.508235], [12.175371, 55.505573], [12.173575, 55.501753], [12.172743, 55.499887], [12.172743, 55.499887], [12.172743, 55.499887], [12.174851, 55.498915], [12.173905, 55.497789], [12.173214, 55.496485], [12.171878, 55.493463], [12.17103, 55.49139], [12.17082, 55.490937], [12.170656, 55.490474], [12.170589, 55.490233], [12.170504, 55.489768], [12.170466, 55.489292], [12.170475, 55.488815], [12.170504, 55.488581], [12.170592, 55.488111], [12.171229, 55.485784], [12.171892, 55.483996], [12.171927, 55.483833], [12.172044, 55.483524], [12.172111, 55.48337], [12.172276, 55.48306], [12.172476, 55.482785], [12.172708, 55.482518], [12.172824, 55.482389], [12.173089, 55.48214], [12.173528, 55.481697], [12.174, 55.481271], [12.174504, 55.480844], [12.174773, 55.480639], [12.17596, 55.479853], [12.17596, 55.479853], [12.17596, 55.479853], [12.17596, 55.479853], [12.176275, 55.479638], [12.179962, 55.477655], [12.180667, 55.477169], [12.181305, 55.47664], [12.181846, 55.476077], [12.182289, 55.47549], [12.182652, 55.474887], [12.182902, 55.474261], [12.183011, 55.473844], [12.183752, 55.471649], [12.186236, 55.464778], [12.187059, 55.462428], [12.187179, 55.461949], [12.187266, 55.461461], [12.187305, 55.460965], [12.187261, 55.460229], [12.187158, 55.459738], [12.186599, 55.457513], [12.186599, 55.457513], [12.186599, 55.457513], [12.186599, 55.457513], [12.186283, 55.456542], [12.185494, 55.4548], [12.184961, 55.453088], [12.184223, 55.449825], [12.184344, 55.447799], [12.182246, 55.446694], [12.180992, 55.445261], [12.17966, 55.444037], [12.177572, 55.442464], [12.175165, 55.441043], [12.150485, 55.427845], [12.14794, 55.426463], [12.145296, 55.424832], [12.143185, 55.423331], [12.141461, 55.421928], [12.139637, 55.420258], [12.137427, 55.418094], [12.137053, 55.417771], [12.137053, 55.417771], [12.137053, 55.417771], [12.137053, 55.417771], [12.135899, 55.416766], [12.111463, 55.393845], [12.109666, 55.39229], [12.107666, 55.390759], [12.105368, 55.389253], [12.103101, 55.387935], [12.084423, 55.377871], [12.081985, 55.376575], [12.078827, 55.374946], [12.075876, 55.37333], [12.075876, 55.37333], [12.075876, 55.37333], [12.075876, 55.37333], [12.07367, 55.372163], [12.070979, 55.370649], [12.066662, 55.368312], [12.064642, 55.367301], [12.062571, 55.366436], [12.06054, 55.365687], [12.038765, 55.357762], [11.966851, 55.331615], [11.960919, 55.329467], [11.960919, 55.329467], [11.960919, 55.329467], [11.960919, 55.329467], [11.949247, 55.325191], [11.946749, 55.324254], [11.944633, 55.323361], [11.94228, 55.322249], [11.940492, 55.321312], [11.928841, 55.314679], [11.924759, 55.31234], [11.922709, 55.31105], [11.921113, 55.30992], [11.919373, 55.308541], [11.917833, 55.307112], [11.916756, 55.305969], [11.915691, 55.304772], [11.914647, 55.303421], [11.912465, 55.300309], [11.898752, 55.279967], [11.897676, 55.278591], [11.896296, 55.277158], [11.894869, 55.275951], [11.893276, 55.274829], [11.891614, 55.273844], [11.889669, 55.272874], [11.886927, 55.271761], [11.884025, 55.270823], [11.855129, 55.26289], [11.850635, 55.261701], [11.848637, 55.261046], [11.848637, 55.261046]]}, "properties": {"shape_id": "2313"}}]}