{"type": "FeatureCollection", "features": [{"type": "Feature", "geometry": {"type": "LineString", "coordinates": [[18.057778, 59.329722], [17.645737, 59.162544], [17.645737, 59.162544], [16.183056, 58.596111], [16.183056, 58.596111], [15.624722, 58.416389], [15.624722, 58.416389], [14.693896, 57.652219], [14.693896, 57.652219], [14.556111, 56.898611], [14.556111, 56.898611], [13.762778, 56.157222], [13.762778, 56.157222], [13.305226, 55.837835], [13.305219, 55.837485], [13.305219, 55.837485], [13.304257, 55.835575], [13.304008, 55.834919], [13.303686, 55.833743], [13.303523, 55.832993], [13.303487, 55.832805], [13.303436, 55.832492], [13.303412, 55.832421], [13.303386, 55.832188], [13.303368, 55.832027], [13.303109, 55.830543], [13.30288, 55.829202], [13.302643, 55.827924], [13.302495, 55.827164], [13.302506, 55.827119], [13.302145, 55.825729], [13.301605, 55.824317], [13.300924, 55.822929], [13.300101, 55.821555], [13.299608, 55.820852], [13.295712, 55.815223], [13.295654, 55.815135], [13.293771, 55.812404], [13.293696, 55.812299], [13.293126, 55.811473], [13.293069, 55.811394], [13.292497, 55.810551], [13.292065, 55.809963], [13.29117, 55.808798], [13.290164, 55.807646], [13.289067, 55.806533], [13.287914, 55.805485], [13.286719, 55.804492], [13.285483, 55.803564], [13.284788, 55.803058], [13.284254, 55.802698], [13.281862, 55.800992], [13.278002, 55.798266], [13.275285, 55.796355], [13.266127, 55.789856], [13.265227, 55.789213], [13.26387, 55.788342], [13.262468, 55.787492], [13.260991, 55.78668], [13.260771, 55.78657], [13.260518, 55.786444], [13.259438, 55.785906], [13.258358, 55.785377], [13.257368, 55.784934], [13.251934, 55.78238], [13.251564, 55.782212], [13.251514, 55.782187], [13.250941, 55.78191], [13.250588, 55.781752], [13.250144, 55.781479], [13.247637, 55.780298], [13.246126, 55.779612], [13.245456, 55.779321], [13.244507, 55.778958], [13.243974, 55.77876], [13.24381, 55.778712], [13.243593, 55.77863], [13.243246, 55.778516], [13.242881, 55.778394], [13.242584, 55.778305], [13.242257, 55.778226], [13.241863, 55.778132], [13.24113, 55.777995], [13.24033, 55.777825], [13.239789, 55.7777], [13.239723, 55.777675], [13.239165, 55.777533], [13.238886, 55.777461], [13.238772, 55.777438], [13.235494, 55.776643], [13.234311, 55.776333], [13.233555, 55.776134], [13.23311, 55.776006], [13.232119, 55.775689], [13.231886, 55.775607], [13.231838, 55.7756], [13.231672, 55.775543], [13.230777, 55.775241], [13.229913, 55.77492], [13.229057, 55.774535], [13.228672, 55.774369], [13.228282, 55.774157], [13.227893, 55.773955], [13.227654, 55.77381], [13.227279, 55.773589], [13.226851, 55.773316], [13.22668, 55.773214], [13.226508, 55.773103], [13.226165, 55.772881], [13.22577, 55.772625], [13.225549, 55.772498], [13.22524, 55.772292], [13.224847, 55.772054], [13.224132, 55.771638], [13.223589, 55.771342], [13.222999, 55.771047], [13.222426, 55.77077], [13.221455, 55.770345], [13.220703, 55.770038], [13.219919, 55.769723], [13.219038, 55.769394], [13.21842, 55.769136], [13.21762, 55.768822], [13.216847, 55.768462], [13.216173, 55.768125], [13.215309, 55.76766], [13.214799, 55.767372], [13.213925, 55.766817], [13.213614, 55.766594], [13.213042, 55.766173], [13.212339, 55.765567], [13.211909, 55.765133], [13.211532, 55.76475], [13.211207, 55.764392], [13.210917, 55.764078], [13.210667, 55.763826], [13.210333, 55.763397], [13.210128, 55.763116], [13.209668, 55.762556], [13.209336, 55.762136], [13.208693, 55.761348], [13.20825, 55.760797], [13.207479, 55.759861], [13.206943, 55.759178], [13.206394, 55.758522], [13.205662, 55.757648], [13.204755, 55.756492], [13.203938, 55.755413], [13.202619, 55.753831], [13.201425, 55.75237], [13.20106, 55.751941], [13.200709, 55.751495], [13.200347, 55.751102], [13.20003, 55.750672], [13.200012, 55.750655], [13.199903, 55.750533], [13.199368, 55.749859], [13.199205, 55.749675], [13.198818, 55.749194], [13.198672, 55.749019], [13.198509, 55.748836], [13.198417, 55.748722], [13.198083, 55.748284], [13.197811, 55.747978], [13.195952, 55.745667], [13.19496, 55.744451], [13.194851, 55.744329], [13.193892, 55.74312], [13.193399, 55.742535], [13.19309, 55.742033], [13.19226, 55.740991], [13.189762, 55.737919], [13.188179, 55.73594], [13.187801, 55.73554], [13.187389, 55.735113], [13.186875, 55.734483], [13.186319, 55.733908], [13.184758, 55.731983], [13.184459, 55.73157], [13.184441, 55.731553], [13.184312, 55.731386], [13.18402, 55.731046], [13.183775, 55.730694], [13.183717, 55.730597], [13.183644, 55.73051], [13.183605, 55.730448], [13.183548, 55.73036], [13.18349, 55.730263], [13.183366, 55.729998], [13.183308, 55.729901], [13.183184, 55.729635], [13.183142, 55.729547], [13.183049, 55.729271], [13.183022, 55.729173], [13.182947, 55.728915], [13.18292, 55.728808], [13.182874, 55.72853], [13.182847, 55.728432], [13.182808, 55.728065], [13.1828, 55.727687], [13.18291, 55.726631], [13.18345, 55.722745], [13.1835, 55.722474], [13.18355, 55.72205], [13.183602, 55.721787], [13.183984, 55.719399], [13.18408, 55.718812], [13.184222, 55.718051], [13.1843, 55.717743], [13.184778, 55.715811], [13.184908, 55.715231], [13.185225, 55.713736], [13.18535, 55.712967], [13.185392, 55.712759], [13.185471, 55.712306], [13.185517, 55.712143], [13.185598, 55.711708], [13.185689, 55.71122], [13.185841, 55.710855], [13.185923, 55.710429], [13.186037, 55.709859], [13.18628, 55.708564], [13.186449, 55.707605], [13.186773, 55.70602], [13.186741, 55.706021], [13.186902, 55.706034], [13.186672, 55.708056], [13.000833, 55.609444], [13.000833, 55.609444], [12.516849, 55.652626], [12.516849, 55.652626], [10.386739, 55.401776], [10.386739, 55.401776], [9.481095, 55.490831], [9.481095, 55.490831], [9.359753, 54.822994], [9.359753, 54.822994], [9.979722, 54.075556], [9.979722, 54.075556], [9.980074, 54.076219], [9.979674, 54.075458], [9.979282, 54.074419], [9.978985, 54.073486], [9.978606, 54.072941], [9.976561, 54.070486], [9.975984, 54.069978], [9.974701, 54.068703], [9.972133, 54.066702], [9.969991, 54.065281], [9.968628, 54.064501], [9.96606, 54.063137], [9.961514, 54.060801], [9.959258, 54.059695], [9.952361, 54.056101], [9.943119, 54.051383], [9.93856, 54.049028], [9.917471, 54.03818], [9.896164, 54.027285], [9.874173, 54.015987], [9.837659, 53.997372], [9.820781, 53.988554], [9.817915, 53.987082], [9.815188, 53.985644], [9.813324, 53.984695], [9.811397, 53.983638], [9.807069, 53.981429], [9.805543, 53.980577], [9.789283, 53.972308], [9.779523, 53.96723], [9.777548, 53.965967], [9.776436, 53.96521], [9.774717, 53.963747], [9.772368, 53.961164], [9.76735, 53.955183], [9.76036, 53.947057], [9.748337, 53.932536], [9.747157, 53.931258], [9.746615, 53.930794], [9.738338, 53.920922], [9.679773, 53.851456], [9.649647, 53.826177], [9.648895, 53.825651], [9.648172, 53.825106], [9.647495, 53.824553], [9.646555, 53.823677], [9.645968, 53.823087], [9.645443, 53.822469], [9.644714, 53.82153], [9.644092, 53.820562], [9.643717, 53.819917], [9.643403, 53.819254], [9.643023, 53.81824], [9.642815, 53.817567], [9.642653, 53.816885], [9.642551, 53.816193], [9.642495, 53.81551], [9.642495, 53.814477], [9.642545, 53.813784], [9.642656, 53.813101], [9.642898, 53.812075], [9.643116, 53.811399], [9.643379, 53.810733], [9.66167, 53.745512], [9.661917, 53.744801], [9.662355, 53.743738], [9.662708, 53.743043], [9.663314, 53.742015], [9.66401, 53.741005], [9.664814, 53.740021], [9.665708, 53.739072], [9.66635, 53.738448], [9.679975, 53.726848], [9.691009, 53.717572], [9.704932, 53.705635], [9.719497, 53.693594], [9.722935, 53.691829], [9.739689, 53.684293], [9.77892, 53.667002], [9.779821, 53.666628], [9.780692, 53.666226], [9.781547, 53.665807], [9.782356, 53.665362], [9.783149, 53.664907], [9.784286, 53.664189], [9.785003, 53.663681], [9.817975, 53.641492], [9.820998, 53.639773], [9.855009, 53.622231], [9.859143, 53.620305], [9.881521, 53.608834], [9.888626, 53.605267], [9.89725, 53.600717], [9.915666, 53.591364], [9.91974, 53.589032], [9.923523, 53.587214], [9.924342, 53.586677], [9.925502, 53.58585], [9.926571, 53.584979], [9.927563, 53.584073], [9.928464, 53.583131], [9.929273, 53.582163], [9.929757, 53.581503], [9.9304, 53.5805], [9.930589, 53.580157], [9.93141, 53.578362], [9.931743, 53.576993], [9.932112, 53.574554], [9.932406, 53.573527], [9.933803, 53.569058], [9.934955, 53.56584], [9.935443, 53.56535], [9.936021, 53.564887], [9.936661, 53.56446], [9.937139, 53.564204], [9.937901, 53.563857], [9.938725, 53.563563], [9.93931, 53.563396], [9.940196, 53.563192], [9.940813, 53.563079], [9.941445, 53.563002], [9.942608, 53.562984], [9.944174, 53.562828], [9.946026, 53.56257], [9.952352, 53.561226], [9.953408, 53.56119], [9.95436, 53.561228], [9.954996, 53.561295], [9.95592, 53.56144], [9.956527, 53.56157], [9.957104, 53.561727], [9.957941, 53.562008], [9.958459, 53.562229], [9.959421, 53.562697], [9.959924, 53.5629], [9.960456, 53.563085], [9.961019, 53.563251], [9.961884, 53.563442], [9.962475, 53.563536], [9.96308, 53.563603], [9.964003, 53.563658], [9.964923, 53.563642], [9.982142, 53.563924], [9.982912, 53.563891], [9.983664, 53.563795], [9.984401, 53.563645], [9.98485, 53.563507], [9.985509, 53.563258], [9.985897, 53.563057], [9.986433, 53.562729], [9.988638, 53.561444], [9.990358, 53.560108], [9.991158, 53.559463], [9.991857, 53.559035], [9.9945, 53.557791], [9.997982, 53.556917], [9.999095, 53.556736], [9.99988, 53.556721], [10.000407, 53.556681], [10.000919, 53.556613], [10.001415, 53.556519], [10.002135, 53.556325], [10.002599, 53.556168], [10.003033, 53.555993], [10.003436, 53.555792], [10.003808, 53.555564], [10.004134, 53.555328], [10.004445, 53.555074], [10.004711, 53.554802], [10.005695, 53.553643], [10.006093, 53.553271], [10.006664, 53.552502]]}, "properties": {"shape_id": "5917"}}]}