{"type":"FeatureCollection","features":[{"type":"Feature","geometry":{"type":"Polygon","coordinates":[[[12.639186,56.042132],[12.538074,56.100197],[12.270068,56.152056],[11.828448,55.979383],[11.840018,55.93367],[11.973819,55.946254],[12.036528,55.909995],[12.035704,55.845305],[12.056737,55.816904],[12.077194,55.761424],[12.068169,55.694336],[12.048313,55.631889],[11.977314,55.562878],[11.950238,55.50908],[11.755291,55.464421],[11.759743,55.43072],[11.764343,55.429963],[11.859383,55.429612],[11.951442,55.458621],[12.095847,55.486927],[12.181257,55.448902],[12.186385,55.44837],[12.207436,55.443411],[12.589791,55.533946],[12.775175,55.587167],[12.780934,55.592119],[12.708354,55.70673],[12.575328,55.930374],[12.639186,56.042132]]]},"properties":{}}]}