{"type":"FeatureCollection","features":[{"type":"Feature","geometry":{"type":"Polygon","coordinates":[[[12.020645,55.605052],[11.990015,55.612444],[11.944825,55.607688],[11.908764,55.59818],[11.787426,55.616346],[11.734055,55.711545],[11.700756,55.725933],[11.626174,55.711159],[11.594699,55.675422],[11.521029,55.665261],[11.17755,55.676728],[11.073684,55.686953],[11.068367,55.672687],[11.167815,55.660407],[11.21964,55.659091],[11.284794,55.642961],[11.349283,55.639208],[11.375211,55.652339],[11.502641,55.645799],[11.585471,55.657264],[11.619448,55.666382],[11.643959,55.697176],[11.699186,55.708927],[11.747669,55.613014],[11.783748,55.596338],[11.822463,55.585483],[11.91288,55.581694],[11.975445,55.598161],[12.015603,55.60013],[12.020645,55.605052]]]},"properties":{}}]}