{"type":"FeatureCollection","features":[{"type":"Feature","geometry":{"type":"Polygon","coordinates":[[[12.19428,55.446882],[12.186329,55.448367],[12.184374,55.448581],[12.184901,55.44684],[12.185162,55.443151],[12.175839,55.383725],[12.213341,55.361265],[12.188956,55.3125],[12.126139,55.283996],[12.121889,55.243886],[12.155515,55.210484],[12.174545,55.214911],[12.154407,55.243886],[12.154961,55.277577],[12.214268,55.306191],[12.242351,55.345712],[12.313379,55.335969],[12.37131,55.304403],[12.3678,55.25168],[12.390895,55.251469],[12.401225,55.312353],[12.328825,55.35573],[12.244198,55.362307],[12.198009,55.387922],[12.19428,55.446882]]]},"properties":{}}]}