{"type":"FeatureCollection","features":[{"type":"Feature","geometry":{"type":"Polygon","coordinates":[[[10.731516,55.680954],[10.167358,55.736393],[10.402638,56.038712],[10.760076,56.066825],[11.240126,56.461522],[10.724232,57.172615],[10.838875,57.981895],[7.979577,57.26678],[7.804189,55.465264],[8.481894,55.044475],[8.611709,54.915084],[9.35792,54.815684],[9.43425,54.82528],[9.590906,54.884243],[10.000366,54.813137],[10.776112,55.018933],[10.991407,55.338484],[10.731516,55.680954]]]},"properties":{}}]}