{"type":"FeatureCollection","features":[{"type":"Feature","properties":{},"geometry":{"type":"Polygon","coordinates":[[[8.634098,54.906426],[4.669673,54.630622],[2.408457,51.757824],[0.867933,50.544651],[-2.1935,50.129767],[-5.861066,48.861239],[-2.719357,47.5049],[7.459029,47.578038],[10.221116,47.361127],[10.767545,46.801043],[12.007385,47.086179],[12.428609,46.658805],[14.489683,46.362401],[16.131681,46.900625],[18.406179,45.786462],[21.091901,46.202854],[22.89853,47.930647],[22.281988,48.398055],[23.946113,50.515965],[23.151232,54.275018],[19.613951,54.34608],[19.035892,55.176734],[16.227867,54.705707],[14.231878,54.70193],[12.789101,54.758221],[12.087848,54.404942],[11.432428,54.516835],[9.885879,54.845874],[9.741619,54.82528],[9.613589,54.85255],[9.625866,54.879801],[9.589036,54.884846],[9.548697,54.865673],[9.438206,54.828311],[9.391283,54.838654],[9.341463,54.800939],[9.246833,54.810288],[9.239198,54.845473],[8.952873,54.899841],[8.792531,54.887765],[8.634098,54.906426]]]}}]}