{"type":"FeatureCollection","features":[{"type":"Feature","geometry":{"type":"Polygon","coordinates":[[[12.357756,56.217414],[12.65824,56.042671],[12.813742,55.623759],[12.773599,55.585432],[12.632111,55.407],[12.914304,55.197279],[13.47869,55.228584],[14.404232,55.210671],[14.929523,55.54032],[16.952286,56.090941],[19.343536,56.97291],[19.924816,59.626751],[20.211429,62.533222],[22.839645,64.532177],[24.038669,65.285749],[23.470077,67.513238],[20.562803,69.029802],[20.314506,68.399675],[18.586256,68.390184],[16.643777,67.437105],[13.850116,64.586868],[12.37101,63.593931],[12.460564,61.528626],[12.605904,60.34404],[11.819643,59.672509],[11.630196,58.871211],[11.271181,59.097782],[10.74613,58.900326],[12.357756,56.217414]]]},"properties":{}}]}